[{"OBJECT_NAME":"GEOSCAN 1 (RS92S1)","OBJECT_ID":"2025-155E","EPOCH":"2026-03-09T22:44:05.846496","MEAN_MOTION":15.28410635,"ECCENTRICITY":0.00087099,"INCLINATION":97.4463,"RA_OF_ASC_NODE":37.403,"ARG_OF_PERICENTER":153.6429,"MEAN_ANOMALY":206.5255,"EPHEMERIS_TYPE":0,"CLASSIFICATION_TYPE":"U","NORAD_CAT_ID":64880,"ELEMENT_SET_NO":999,"REV_AT_EPOCH":6560,"BSTAR":0.00054367431,"MEAN_MOTION_DOT":0.00014993,"MEAN_MOTION_DDOT":0},{"OBJECT_NAME":"STARLINK-35939","OBJECT_ID":"2025-268AD","EPOCH":"2026-03-09T02:21:32.773536","MEAN_MOTION":15.27559241,"ECCENTRICITY":0.00015039,"INCLINATION":43.0045,"RA_OF_ASC_NODE":350.0257,"ARG_OF_PERICENTER":267.1798,"MEAN_ANOMALY":92.8881,"EPHEMERIS_TYPE":0,"CLASSIFICATION_TYPE":"U","NORAD_CAT_ID":66584,"ELEMENT_SET_NO":999,"REV_AT_EPOCH":1787,"BSTAR":0.0013505946,"MEAN_MOTION_DOT":0.00037067,"MEAN_MOTION_DDOT":0}]
